NORAD_CAT_ID,OBJECT_NAME,OBJECT_TYPE,EPOCH,MEAN_MOTION,ECCENTRICITY,INCLINATION,RA_OF_ASC_NODE,ARG_OF_PERICENTER,MEAN_ANOMALY,BSTAR,MEAN_MOTION_DOT,MEAN_MOTION_DDOT,TLE_LINE0,TLE_LINE1,TLE_LINE2,SEMIMAJOR_AXIS,PERIOD,APOGEE,PERIGEE,DECAYED
56472.0,STARLINK-5038,PAYLOAD,2024-07-05 13:06:29,14.98336167,0.0003645,69.9983,227.9856,271.6319,88.4422,0.00014314,1.616e-05,0.0,0 STARLINK-5038,1 56472U 23064AA  24187.54617928  .00001616  00000-0  14314-3 0  9993,2 56472  69.9983 227.9856 0003645 271.6319  88.4422 14.98336167 64046,6950.174,96.107,574.572,569.505,0.0
56472.0,STARLINK-5038,PAYLOAD,2024-07-06 05:07:50,14.98332517,0.0003559,69.9985,226.3025,271.851,88.2241,2.7001e-05,2.29e-06,0.0,0 STARLINK-5038,1 56472U 23064AA  24188.21378234  .00000229  00000-0  27001-4 0  9999,2 56472  69.9985 226.3025 0003559 271.8510  88.2241 14.98332517 64501,6950.185,96.107,574.524,569.577,0.0
56472.0,STARLINK-5038,PAYLOAD,2024-07-06 11:32:23,14.98329514,0.0003485,69.9987,225.63,269.47,90.606,-8.1471e-06,-1.9e-06,0.0,0 STARLINK-5038,1 56472U 23064AA  24188.48082347 -.00000190  00000-0 -81471-5 0  9996,2 56472  69.9987 225.6300 0003485 269.4700  90.6060 14.98329514 64186,6950.194,96.107,574.482,569.637,0.0
56472.0,STARLINK-5038,PAYLOAD,2024-07-06 19:33:03,14.98330025,0.0003492,69.9988,224.7883,269.51,90.5658,4.104e-06,-4.4e-07,0.0,0 STARLINK-5038,1 56472U 23064AA  24188.81462288 -.00000044  00000-0  41040-5 0  9994,2 56472  69.9988 224.7883 0003492 269.5100  90.5658 14.98330025 64233,6950.193,96.107,574.485,569.631,0.0
56472.0,STARLINK-5038,PAYLOAD,2024-07-07 05:09:51,14.98331766,0.000356,69.9985,223.7782,268.1947,91.8805,2.8638e-05,2.49e-06,0.0,0 STARLINK-5038,1 56472U 23064AA  24189.21518059  .00000249  00000-0  28638-4 0  9990,2 56472  69.9985 223.7782 0003560 268.1947  91.8805 14.98331766 64654,6950.187,96.107,574.527,569.578,0.0
56472.0,STARLINK-5038,PAYLOAD,2024-07-07 11:34:23,14.98330187,0.0003614,69.9984,223.1046,269.377,90.6975,4.5221e-06,-3.9e-07,0.0,0 STARLINK-5038,1 56472U 23064AA  24189.48222206 -.00000039  00000-0  45221-5 0  9991,2 56472  69.9984 223.1046 0003614 269.3770  90.6975 14.98330187 64333,6950.192,96.107,574.569,569.546,0.0
56472.0,STARLINK-5038,PAYLOAD,2024-07-08 11:36:24,14.98329631,0.0003692,69.9983,220.5795,269.1822,90.8914,6.5058e-05,6.83e-06,0.0,0 STARLINK-5038,1 56472U 23064AA  24190.48362132  .00000683  00000-0  65058-4 0  9999,2 56472  69.9983 220.5795 0003692 269.1822  90.8914 14.98329631 64849,6950.194,96.107,574.625,569.493,0.0
56472.0,STARLINK-5038,PAYLOAD,2024-07-08 19:37:05,14.98330836,0.0003733,69.9982,219.7376,269.4292,90.6439,6.6845e-05,7.05e-06,0.0,0 STARLINK-5038,1 56472U 23064AA  24190.81742060  .00000705  00000-0  66845-4 0  9998,2 56472  69.9982 219.7376 0003733 269.4292  90.6439 14.98330836 64538,6950.19,96.107,574.65,569.461,0.0
56472.0,STARLINK-5038,PAYLOAD,2024-07-09 11:38:25,14.98333005,0.0003756,69.9982,218.0542,269.0825,90.9904,8.4683e-05,9.18e-06,0.0,0 STARLINK-5038,1 56472U 23064AA  24191.48501828  .00000918  00000-0  84683-4 0  9993,2 56472  69.9982 218.0542 0003756 269.0825  90.9904 14.98333005 64999,6950.184,96.107,574.659,569.438,0.0
56472.0,STARLINK-5038,PAYLOAD,2024-07-10 11:40:26,14.98329189,0.0003756,69.9983,215.5295,269.0435,91.0294,2.5505e-05,2.11e-06,0.0,0 STARLINK-5038,1 56472U 23064AA  24192.48642213  .00000211  00000-0  25505-4 0  9992,2 56472  69.9983 215.5295 0003756 269.0435  91.0294 14.98329189 65144,6950.195,96.107,574.671,569.45,0.0
56472.0,STARLINK-5038,PAYLOAD,2024-07-11 11:42:27,14.98333224,0.0003729,69.9986,213.005,268.5793,91.4939,4.0849e-05,3.94e-06,0.0,0 STARLINK-5038,1 56472U 23064AA  24193.48781830  .00000394  00000-0  40849-4 0  9992,2 56472  69.9986 213.0050 0003729 268.5793  91.4939 14.98333224 64931,6950.183,96.107,574.64,569.456,0.0
56472.0,STARLINK-5038,PAYLOAD,2024-07-12 10:08:20,14.98332439,0.0003764,69.9985,210.6482,269.3174,90.7553,9.6133e-05,1.054e-05,0.0,0 STARLINK-5038,1 56472U 23064AA  24194.42245685  .00001054  00000-0  96133-4 0  9991,2 56472  69.9985 210.6482 0003764 269.3174  90.7553 14.98332439 65070,6950.185,96.107,574.666,569.434,0.0
56472.0,STARLINK-5038,PAYLOAD,2024-07-12 18:09:00,14.98332915,0.0003761,69.9986,209.8065,269.4123,90.6605,7.1209e-05,7.57e-06,0.0,0 STARLINK-5038,1 56472U 23064AA  24194.75625702  .00000757  00000-0  71209-4 0  9995,2 56472  69.9986 209.8065 0003761 269.4123  90.6605 14.98332915 65481,6950.184,96.107,574.663,569.435,0.0
56472.0,STARLINK-5038,PAYLOAD,2024-07-13 10:10:21,14.98332683,0.0003749,69.9986,208.1235,268.0771,91.9959,3.6169e-05,3.39e-06,0.0,0 STARLINK-5038,1 56472U 23064AA  24195.42385683  .00000339  00000-0  36169-4 0  9993,2 56472  69.9986 208.1235 0003749 268.0771  91.9959 14.98332683 65222,6950.185,96.107,574.655,569.444,0.0
56472.0,STARLINK-5038,PAYLOAD,2024-07-13 18:11:01,14.98331549,0.0003763,69.9986,207.2818,268.5291,91.5437,2.3605e-05,1.89e-06,0.0,0 STARLINK-5038,1 56472U 23064AA  24195.75765760  .00000189  00000-0  23605-4 0  9991,2 56472  69.9986 207.2818 0003763 268.5291  91.5437 14.98331549 65639,6950.188,96.107,574.668,569.438,0.0
56472.0,STARLINK-5038,PAYLOAD,2024-07-14 10:12:22,14.98328604,0.0003736,69.9986,205.5987,268.2523,91.8208,-5.3981e-06,-1.58e-06,0.0,0 STARLINK-5038,1 56472U 23064AA  24196.42526066 -.00000158  00000-0 -53981-5 0  9999,2 56472  69.9986 205.5987 0003736 268.2523  91.8208 14.98328604 65370,6950.197,96.107,574.659,569.466,0.0
56472.0,STARLINK-5038,PAYLOAD,2024-07-14 18:13:02,14.98329723,0.0003751,69.9986,204.757,268.2717,91.8012,1.6254e-05,1.01e-06,0.0,0 STARLINK-5038,1 56472U 23064AA  24196.75905963  .00000101  00000-0  16254-4 0  9999,2 56472  69.9986 204.7570 0003751 268.2717  91.8012 14.98329723 65782,6950.194,96.107,574.666,569.452,0.0
56472.0,STARLINK-5038,PAYLOAD,2024-07-15 10:14:23,14.98332596,0.0003779,69.9985,203.0734,267.6784,92.3942,6.3829e-05,6.69e-06,0.0,0 STARLINK-5038,1 56472U 23064AA  24197.42665663  .00000669  00000-0  63829-4 0  9993,2 56472  69.9985 203.0734 0003779 267.6784  92.3942 14.98332596 65524,6950.185,96.107,574.676,569.423,0.0
56472.0,STARLINK-5038,PAYLOAD,2024-07-15 18:15:03,14.98332368,0.0003763,69.9986,202.2316,267.588,92.4849,7.1475e-05,7.6e-06,0.0,0 STARLINK-5038,1 56472U 23064AA  24197.76045661  .00000760  00000-0  71475-4 0  9998,2 56472  69.9986 202.2316 0003763 267.5880  92.4849 14.98332368 65930,6950.186,96.107,574.666,569.435,0.0
56472.0,STARLINK-5038,PAYLOAD,2024-07-16 10:16:23,14.98333606,0.0003762,69.9985,200.5483,267.2576,92.8153,0.00012437,1.391e-05,0.0,0 STARLINK-5038,1 56472U 23064AA  24198.42805406  .00001391  00000-0  12437-3 0  9996,2 56472  69.9985 200.5483 0003762 267.2576  92.8153 14.98333606 65672,6950.182,96.107,574.661,569.432,0.0
56472.0,STARLINK-5038,PAYLOAD,2024-07-17 05:30:00,14.98334063,0.0003727,69.9986,198.5285,267.0353,93.038,5.6064e-05,5.76e-06,0.0,0 STARLINK-5038,1 56472U 23064AA  24199.22917410  .00000576  00000-0  56064-4 0  9993,2 56472  69.9986 198.5285 0003727 267.0353  93.0380 14.98334063 66158,6950.18,96.107,574.636,569.455,0.0
56472.0,STARLINK-5038,PAYLOAD,2024-07-17 10:18:24,14.98336244,0.0003716,69.9986,198.0235,267.106,92.9674,7.7888e-05,8.37e-06,0.0,0 STARLINK-5038,1 56472U 23064AA  24199.42945152  .00000837  00000-0  77888-4 0  9996,2 56472  69.9986 198.0235 0003716 267.1060  92.9674 14.98336244 65822,6950.174,96.107,574.621,569.456,0.0
56472.0,STARLINK-5038,PAYLOAD,2024-07-18 05:32:01,14.98329854,0.0003584,69.999,196.0039,268.1508,91.9241,-2.178e-05,-3.53e-06,0.0,0 STARLINK-5038,1 56472U 23064AA  24200.23057815 -.00000353  00000-0 -21780-4 0  9993,2 56472  69.9990 196.0039 0003584 268.1508  91.9241 14.98329854 66300,6950.193,96.107,574.549,569.567,0.0
56472.0,STARLINK-5038,PAYLOAD,2024-07-18 10:20:26,14.98330236,0.0003543,69.9992,195.4994,266.0647,94.0107,-7.4249e-06,-1.82e-06,0.0,0 STARLINK-5038,1 56472U 23064AA  24200.43085727 -.00000182  00000-0 -74249-5 0  9997,2 56472  69.9992 195.4994 0003543 266.0647  94.0107 14.98330236 65974,6950.192,96.107,574.52,569.595,0.0
56472.0,STARLINK-5038,PAYLOAD,2024-07-18 16:44:58,14.98330349,0.0003533,69.9992,194.8262,265.9942,94.0813,1.5785e-05,9.5e-07,0.0,0 STARLINK-5038,1 56472U 23064AA  24200.69789681  .00000095  00000-0  15785-4 0  9995,2 56472  69.9992 194.8262 0003533 265.9942  94.0813 14.98330349 66015,6950.192,96.107,574.512,569.601,0.0
56472.0,STARLINK-5038,PAYLOAD,2024-07-19 05:34:00,14.98360163,0.000338,69.9994,193.48,266.4507,93.6266,0.00031731,3.698e-05,0.0,0 STARLINK-5038,1 56472U 23064AA  24201.23194475  .00003698  00000-0  31731-3 0  9997,2 56472  69.9994 193.4800 0003380 266.4507  93.6266 14.98360163 66455,6950.1,96.105,574.314,569.615,0.0
56472.0,STARLINK-5038,PAYLOAD,2024-07-19 08:46:15,14.98362262,0.0003327,69.9995,193.1436,264.4441,95.6338,0.00032996,3.849e-05,0.0,0 STARLINK-5038,1 56472U 23064AA  24201.36546057  .00003849  00000-0  32996-3 0  9990,2 56472  69.9995 193.1436 0003327 264.4441  95.6338 14.98362262 66111,6950.093,96.105,574.27,569.646,0.0
56472.0,STARLINK-5038,PAYLOAD,2024-07-19 16:46:56,14.98346379,0.0003062,69.9996,192.3014,270.074,90.0068,0.00016206,1.842e-05,0.0,0 STARLINK-5038,1 56472U 23064AA  24201.69927077  .00001842  00000-0  16206-3 0  9998,2 56472  69.9996 192.3014 0003062 270.0740  90.0068 14.98346379 66521,6950.142,96.106,574.135,569.879,0.0
56472.0,STARLINK-5038,PAYLOAD,2024-07-20 05:36:03,14.98321552,0.0003406,69.9987,190.9544,268.0777,91.9992,-8.5228e-05,-1.11e-05,0.0,0 STARLINK-5038,1 56472U 23064AA  24202.23337127 -.00001110  00000-0 -85228-4 0  9991,2 56472  69.9987 190.9544 0003406 268.0777  91.9992 14.98321552 66603,6950.219,96.108,574.451,569.717,0.0
56472.0,STARLINK-5038,PAYLOAD,2024-07-20 08:48:19,14.98322048,0.0003349,69.9989,190.6179,268.038,92.0396,-7.3896e-05,-9.74e-06,0.0,0 STARLINK-5038,1 56472U 23064AA  24202.36689112 -.00000974  00000-0 -73896-4 0  9994,2 56472  69.9989 190.6179 0003349 268.0380  92.0396 14.98322048 66265,6950.217,96.108,574.41,569.755,0.0
